{"type": "FeatureCollection", "features": [ {"type": "Feature", "properties": {"norad_id": 30674, "name": "FENGYUN 1C DEB", "group": "fengyun-1c-debris", "lat": -43.311349358435585, "lon": 147.51469998022398, "alt_km": 577.651193966627, "timestamp": "2025-12-03T10:52:57.731563+00:00", "meta": {"OBJECT_NAME": "FENGYUN 1C DEB", "OBJECT_ID": "1999-025AQG", "EPOCH": "2025-12-02T22:12:48.669984", "MEAN_MOTION": 14.93271462, "ECCENTRICITY": 0.002379, "INCLINATION": 98.9415, "RA_OF_ASC_NODE": 138.3793, "ARG_OF_PERICENTER": 325.6498, "MEAN_ANOMALY": 34.3179, "EPHEMERIS_TYPE": 0, "CLASSIFICATION_TYPE": "U", "NORAD_CAT_ID": 30674, "ELEMENT_SET_NO": 999, "REV_AT_EPOCH": 97205, "BSTAR": 0.0096063, "MEAN_MOTION_DOT": 0.00102455, "MEAN_MOTION_DDOT": 0}, "tle": {"line1": "1 30674U 99025AQG 25336.92556331  .00102455  00000+0  96063-2 0  9990", "line2": "2 30674  98.9415 138.3793 0023790 325.6498  34.3179 14.93271462972059"}}, "geometry": {"type": "Point", "coordinates": [147.51469998022398, -43.311349358435585]}}, {"type": "Feature", "properties": {"norad_id": 30675, "name": "FENGYUN 1C DEB", "group": "fengyun-1c-debris", "lat": 69.55777013661793, "lon": -99.00841941277505, "alt_km": 791.6503360560009, "timestamp": "2025-12-03T10:52:57.731573+00:00", "meta": {"OBJECT_NAME": "FENGYUN 1C DEB", "OBJECT_ID": "1999-025AQH", "EPOCH": "2025-12-03T03:46:52.344192", "MEAN_MOTION": 14.27270648, "ECCENTRICITY": 0.0054046, "INCLINATION": 98.756, "RA_OF_ASC_NODE": 56.2714, "ARG_OF_PERICENTER": 196.087, "MEAN_ANOMALY": 193.5356, "EPHEMERIS_TYPE": 0, "CLASSIFICATION_TYPE": "U", "NORAD_CAT_ID": 30675, "ELEMENT_SET_NO": 999, "REV_AT_EPOCH": 96755, "BSTAR": 0.0023376, "MEAN_MOTION_DOT": 5.766e-05, "MEAN_MOTION_DDOT": 0}, "tle": {"line1": "1 30675U 99025AQH 25337.15755028  .00005766  00000+0  23376-2 0  9995", "line2": "2 30675  98.7560  56.2714 0054046 196.0870 193.5356 14.27270648967558"}}, "geometry": {"type": "Point", "coordinates": [-99.00841941277505, 69.55777013661793]}}, {"type": "Feature", "properties": {"norad_id": 30676, "name": "FENGYUN 1C DEB", "group": "fengyun-1c-debris", "lat": 45.47924611140964, "lon": 156.06881856779717, "alt_km": 669.1646272045518, "timestamp": "2025-12-03T10:52:57.731584+00:00", "meta": {"OBJECT_NAME": "FENGYUN 1C DEB", "OBJECT_ID": "1999-025AQJ", "EPOCH": "2025-12-02T18:56:30.856992", "MEAN_MOTION": 13.73865098, "ECCENTRICITY": 0.0472551, "INCLINATION": 98.2658, "RA_OF_ASC_NODE": 163.9921, "ARG_OF_PERICENTER": 75.2867, "MEAN_ANOMALY": 290.0156, "EPHEMERIS_TYPE": 0, "CLASSIFICATION_TYPE": "U", "NORAD_CAT_ID": 30676, "ELEMENT_SET_NO": 999, "REV_AT_EPOCH": 93787, "BSTAR": 0.00097498, "MEAN_MOTION_DOT": 2.025e-05, "MEAN_MOTION_DDOT": 0}, "tle": {"line1": "1 30676U 99025AQJ 25336.78924603  .00002025  00000+0  97498-3 0  9993", "line2": "2 30676  98.2658 163.9921 0472551  75.2867 290.0156 13.73865098937879"}}, "geometry": {"type": "Point", "coordinates": [156.06881856779717, 45.47924611140964]}}, {"type": "Feature", "properties": {"norad_id": 30677, "name": "FENGYUN 1C DEB", "group": "fengyun-1c-debris", "lat": 64.2429529017188, "lon": -139.57177849242584, "alt_km": 780.2285077152046, "timestamp": "2025-12-03T10:52:57.731595+00:00", "meta": {"OBJECT_NAME": "FENGYUN 1C DEB", "OBJECT_ID": "1999-025AQK", "EPOCH": "2025-12-03T02:15:14.568768", "MEAN_MOTION": 14.3802879, "ECCENTRICITY": 0.0065789, "INCLINATION": 98.2556, "RA_OF_ASC_NODE": 22.5705, "ARG_OF_PERICENTER": 233.0781, "MEAN_ANOMALY": 181.8693, "EPHEMERIS_TYPE": 0, "CLASSIFICATION_TYPE": "U", "NORAD_CAT_ID": 30677, "ELEMENT_SET_NO": 999, "REV_AT_EPOCH": 97841, "BSTAR": 0.0016957, "MEAN_MOTION_DOT": 5.223e-05, "MEAN_MOTION_DDOT": 0}, "tle": {"line1": "1 30677U 99025AQK 25337.09391862  .00005223  00000+0  16957-2 0  9997", "line2": "2 30677  98.2556  22.5705 0065789 233.0781 181.8693 14.38028790978417"}}, "geometry": {"type": "Point", "coordinates": [-139.57177849242584, 64.2429529017188]}}, {"type": "Feature", "properties": {"norad_id": 30678, "name": "FENGYUN 1C DEB", "group": "fengyun-1c-debris", "lat": 69.02468739856408, "lon": -86.741579703967, "alt_km": 857.2807434301658, "timestamp": "2025-12-03T10:52:57.731605+00:00", "meta": {"OBJECT_NAME": "FENGYUN 1C DEB", "OBJECT_ID": "1999-025AQL", "EPOCH": "2025-12-02T08:18:31.095072", "MEAN_MOTION": 14.23915403, "ECCENTRICITY": 0.00728239, "INCLINATION": 99.0794, "RA_OF_ASC_NODE": 296.7678, "ARG_OF_PERICENTER": 261.308, "MEAN_ANOMALY": 256.8853, "EPHEMERIS_TYPE": 0, "CLASSIFICATION_TYPE": "U", "NORAD_CAT_ID": 30678, "ELEMENT_SET_NO": 999, "REV_AT_EPOCH": 95727, "BSTAR": 0.0041348228, "MEAN_MOTION_DOT": 9.706e-05, "MEAN_MOTION_DDOT": 0}, "tle": {"line1": "1 30678U 99025AQL 25336.34619323  .00009706  00000+0  41348-2 0  9992", "line2": "2 30678  99.0794 296.7678 0072823 261.3080 256.8853 14.23915403957270"}}, "geometry": {"type": "Point", "coordinates": [-86.741579703967, 69.02468739856408]}}, {"type": "Feature", "properties": {"norad_id": 30679, "name": "FENGYUN 1C DEB", "group": "fengyun-1c-debris", "lat": -54.22696475270567, "lon": -163.9821724626603, "alt_km": 1055.281651006525, "timestamp": "2025-12-03T10:52:57.731615+00:00", "meta": {"OBJECT_NAME": "FENGYUN 1C DEB", "OBJECT_ID": "1999-025AQM", "EPOCH": "2025-12-02T02:34:20.328672", "MEAN_MOTION": 13.79690912, "ECCENTRICITY": 0.01721197, "INCLINATION": 99.3828, "RA_OF_ASC_NODE": 27.9498, "ARG_OF_PERICENTER": 106.8043, "MEAN_ANOMALY": 283.7632, "EPHEMERIS_TYPE": 0, "CLASSIFICATION_TYPE": "U", "NORAD_CAT_ID": 30679, "ELEMENT_SET_NO": 999, "REV_AT_EPOCH": 94373, "BSTAR": 0.00071659557, "MEAN_MOTION_DOT": 7.84e-06, "MEAN_MOTION_DDOT": 0}, "tle": {"line1": "1 30679U 99025AQM 25336.10717973  .00000784  00000+0  71660-3 0  9995", "line2": "2 30679  99.3828  27.9498 0172119 106.8043 283.7632 13.79690912943732"}}, "geometry": {"type": "Point", "coordinates": [-163.9821724626603, -54.22696475270567]}}, {"type": "Feature", "properties": {"norad_id": 30680, "name": "FENGYUN 1C DEB", "group": "fengyun-1c-debris", "lat": 15.102410202931745, "lon": -157.10908230677273, "alt_km": 820.8319361058975, "timestamp": "2025-12-03T10:52:57.731626+00:00", "meta": {"OBJECT_NAME": "FENGYUN 1C DEB", "OBJECT_ID": "1999-025AQN", "EPOCH": "2025-12-01T15:33:34.436736", "MEAN_MOTION": 13.55958552, "ECCENTRICITY": 0.03420376, "INCLINATION": 99.6294, "RA_OF_ASC_NODE": 18.4988, "ARG_OF_PERICENTER": 195.0174, "MEAN_ANOMALY": 164.0605, "EPHEMERIS_TYPE": 0, "CLASSIFICATION_TYPE": "U", "NORAD_CAT_ID": 30680, "ELEMENT_SET_NO": 999, "REV_AT_EPOCH": 92103, "BSTAR": 0.0043959784, "MEAN_MOTION_DOT": 4.439e-05, "MEAN_MOTION_DDOT": 0}, "tle": {"line1": "1 30680U 99025AQN 25335.64831524  .00004439  00000+0  43960-2 0  9996", "line2": "2 30680  99.6294  18.4988 0342037 195.0174 164.0605 13.55958552921037"}}, "geometry": {"type": "Point", "coordinates": [-157.10908230677273, 15.102410202931745]}}, {"type": "Feature", "properties": {"norad_id": 30683, "name": "FENGYUN 1C DEB", "group": "fengyun-1c-debris", "lat": 73.55674583460303, "lon": -45.609683054020785, "alt_km": 985.5778091074881, "timestamp": "2025-12-03T10:52:57.731636+00:00", "meta": {"OBJECT_NAME": "FENGYUN 1C DEB", "OBJECT_ID": "1999-025AQR", "EPOCH": "2025-12-03T00:20:59.668800", "MEAN_MOTION": 14.00323559, "ECCENTRICITY": 0.0138432, "INCLINATION": 99.4291, "RA_OF_ASC_NODE": 348.2044, "ARG_OF_PERICENTER": 251.2023, "MEAN_ANOMALY": 134.2715, "EPHEMERIS_TYPE": 0, "CLASSIFICATION_TYPE": "U", "NORAD_CAT_ID": 30683, "ELEMENT_SET_NO": 999, "REV_AT_EPOCH": 95415, "BSTAR": 0.0017055, "MEAN_MOTION_DOT": 2.694e-05, "MEAN_MOTION_DDOT": 0}, "tle": {"line1": "1 30683U 99025AQR 25337.01457950  .00002694  00000+0  17055-2 0  9996", "line2": "2 30683  99.4291 348.2044 0138432 251.2023 134.2715 14.00323559954156"}}, "geometry": {"type": "Point", "coordinates": [-45.609683054020785, 73.55674583460303]}}, {"type": "Feature", "properties": {"norad_id": 30684, "name": "FENGYUN 1C DEB", "group": "fengyun-1c-debris", "lat": -66.65152487087508, "lon": 41.87995070917869, "alt_km": 845.7851006328683, "timestamp": "2025-12-03T10:52:57.731647+00:00", "meta": {"OBJECT_NAME": "FENGYUN 1C DEB", "OBJECT_ID": "1999-025AQS", "EPOCH": "2025-12-01T13:31:37.536960", "MEAN_MOTION": 13.66771783, "ECCENTRICITY": 0.02336022, "INCLINATION": 99.5313, "RA_OF_ASC_NODE": 17.113, "ARG_OF_PERICENTER": 298.0542, "MEAN_ANOMALY": 59.7156, "EPHEMERIS_TYPE": 0, "CLASSIFICATION_TYPE": "U", "NORAD_CAT_ID": 30684, "ELEMENT_SET_NO": 999, "REV_AT_EPOCH": 93476, "BSTAR": 0.00093442149, "MEAN_MOTION_DOT": 8.93e-06, "MEAN_MOTION_DDOT": 0}, "tle": {"line1": "1 30684U 99025AQS 25335.56362890  .00000893  00000+0  93442-3 0  9997", "line2": "2 30684  99.5313  17.1130 0233602 298.0542  59.7156 13.66771783934763"}}, "geometry": {"type": "Point", "coordinates": [41.87995070917869, -66.65152487087508]}}, {"type": "Feature", "properties": {"norad_id": 30686, "name": "FENGYUN 1C DEB", "group": "fengyun-1c-debris", "lat": -77.69673590932673, "lon": -56.543847175662684, "alt_km": 693.4580325267634, "timestamp": "2025-12-03T10:52:57.731657+00:00", "meta": {"OBJECT_NAME": "FENGYUN 1C DEB", "OBJECT_ID": "1999-025AQU", "EPOCH": "2025-12-02T19:06:27.632160", "MEAN_MOTION": 14.73688594, "ECCENTRICITY": 0.0144192, "INCLINATION": 99.0333, "RA_OF_ASC_NODE": 169.5639, "ARG_OF_PERICENTER": 151.5368, "MEAN_ANOMALY": 223.4351, "EPHEMERIS_TYPE": 0, "CLASSIFICATION_TYPE": "U", "NORAD_CAT_ID": 30686, "ELEMENT_SET_NO": 999, "REV_AT_EPOCH": 99455, "BSTAR": 0.0011717, "MEAN_MOTION_DOT": 8.972e-05, "MEAN_MOTION_DDOT": 0}, "tle": {"line1": "1 30686U 99025AQU 25336.79615315  .00008972  00000+0  11717-2 0  9998", "line2": "2 30686  99.0333 169.5639 0144192 151.5368 223.4351 14.73688594994558"}}, "geometry": {"type": "Point", "coordinates": [-56.543847175662684, -77.69673590932673]}}]}